{
    "links": {
        "self": "http://www.neowsapp.com/rest/v1/neo/54016455?api_key=iIulBulltgU6a56xZRHN4H3l9WmuAYTsLGpBGhQ2"
    },
    "id": "54016455",
    "neo_reference_id": "54016455",
    "name": "(2020 GV)",
    "designation": "2020 GV",
    "nasa_jpl_url": "http://ssd.jpl.nasa.gov/sbdb.cgi?sstr=54016455",
    "absolute_magnitude_h": 26.213,
    "estimated_diameter": {
        "kilometers": {
            "estimated_diameter_min": 0.015203899,
            "estimated_diameter_max": 0.0339969517
        },
        "meters": {
            "estimated_diameter_min": 15.2038990245,
            "estimated_diameter_max": 33.9969517417
        },
        "miles": {
            "estimated_diameter_min": 0.0094472619,
            "estimated_diameter_max": 0.0211247199
        },
        "feet": {
            "estimated_diameter_min": 49.8815600754,
            "estimated_diameter_max": 111.5385591523
        }
    },
    "is_potentially_hazardous_asteroid": false,
    "close_approach_data": [
        {
            "close_approach_date": "2020-03-28",
            "close_approach_date_full": "2020-Mar-28 21:45",
            "epoch_date_close_approach": 1585431900000,
            "relative_velocity": {
                "kilometers_per_second": "7.0768316935",
                "kilometers_per_hour": "25476.5940967599",
                "miles_per_hour": "15830.1648152895"
            },
            "miss_distance": {
                "astronomical": "0.0494306495",
                "lunar": "19.2285226555",
                "kilometers": "7394719.877916565",
                "miles": "4594865.865375997"
            },
            "orbiting_body": "Earth"
        }
    ],
    "orbital_data": {
        "orbit_id": "1",
        "orbit_determination_date": "2020-04-04 06:42:10",
        "first_observation_date": "2020-04-02",
        "last_observation_date": "2020-04-04",
        "data_arc_in_days": 2,
        "observations_used": 18,
        "orbit_uncertainty": "8",
        "minimum_orbit_intersection": ".0267705",
        "jupiter_tisserand_invariant": "3.769",
        "epoch_osculation": "2458942.5",
        "eccentricity": ".4731207797178831",
        "semi_major_axis": "1.928721348456053",
        "inclination": "2.791300027838544",
        "ascending_node_longitude": "6.915403048292773",
        "orbital_period": "978.3689432141409",
        "perihelion_distance": "1.016203200215998",
        "perihelion_argument": "159.7840371472099",
        "aphelion_distance": "2.841239496696107",
        "perihelion_time": "2458920.146582776581",
        "mean_anomaly": "8.225148862548778",
        "mean_motion": ".3679593495857778",
        "equinox": "J2000",
        "orbit_class": {
            "orbit_class_type": "APO",
            "orbit_class_description": "Near-Earth asteroid orbits which cross the Earth’s orbit similar to that of 1862 Apollo",
            "orbit_class_range": "a (semi-major axis) > 1.0 AU; q (perihelion) < 1.017 AU"
        }
    },
    "is_sentry_object": false
}